OBJECT_NAME,OBJECT_ID,EPOCH,MEAN_MOTION,ECCENTRICITY,INCLINATION,RA_OF_ASC_NODE,ARG_OF_PERICENTER,MEAN_ANOMALY,EPHEMERIS_TYPE,CLASSIFICATION_TYPE,NORAD_CAT_ID,ELEMENT_SET_NO,REV_AT_EPOCH,BSTAR,MEAN_MOTION_DOT,MEAN_MOTION_DDOT
FENGYUN 3D,2017-072A,2026-06-15T14:19:33.410208,14.19738205,.00025927,99.0119,140.9902,64.8476,295.2968,0,U,43010,999,44476,-.11445228E-3,-.288E-5,0
NOAA 20 (JPSS-1),2017-073A,2026-06-15T14:11:54.807648,14.19511431,.00002925,98.7772,106.0684,84.6320,275.4890,0,U,43013,999,44424,.39872324E-4,.4E-6,0
GOES 17,2018-022A,2026-06-15T10:55:30.285696,1.00269922,.00003992,0.9331,85.7405,34.0768,218.2957,0,U,43226,999,3040,0,-.18E-5,0
SENTINEL-3B,2018-039A,2026-06-15T10:28:30.007488,14.26734189,.0000742,98.6250,233.9938,85.5987,274.5279,0,U,43437,999,42387,.45012949E-4,.65E-6,0
FENGYUN 2H,2018-050A,2026-06-15T15:13:16.088736,1.00269693,.00019546,3.0263,79.0896,137.5757,354.9826,0,U,43491,999,2942,0,-.13E-5,0
METOP-C,2018-087A,2026-06-15T14:09:28.358784,14.21511730,.00017106,98.6645,226.2227,131.3696,228.7628,0,U,43689,999,39460,.60824244E-4,.9E-6,0
GEO-KOMPSAT-2A,2018-100A,2026-06-15T14:10:40.082016,1.00271241,.00017847,0.0516,121.9914,324.3259,158.4907,0,U,43823,999,2761,0,-.341E-5,0
METEOR-M2 2,2019-038A,2026-06-15T15:05:46.523616,14.24365364,.00021247,98.9135,153.8912,50.2955,309.8410,0,U,44387,999,36107,-.1153466E-4,-.73E-6,0
ARKTIKA-M 1,2021-016A,2026-06-09T12:22:37.726752,2.00625436,.7285674,63.2417,58.7595,269.8905,14.6803,0,U,47719,999,3863,0,-.149E-5,0
FENGYUN 3E,2021-062A,2026-06-15T13:56:34.746144,14.19903098,.00028316,98.7484,170.0068,88.0162,272.1339,0,U,49008,999,25635,-.77622662E-4,-.209E-5,0
GOES 18,2022-021A,2026-06-15T12:24:33.414624,1.00269699,.00003037,0.0097,97.4311,68.9387,146.5668,0,U,51850,999,657,0,.99E-6,0
NOAA 21 (JPSS-2),2022-150A,2026-06-15T13:17:52.709856,14.19565194,.00015669,98.7060,105.3707,157.7735,202.3510,0,U,54234,999,18631,.39442778E-4,.4E-6,0
METEOSAT-12 (MTG-I1),2022-170C,2026-06-15T07:55:34.274784,1.00272178,.00031271,0.7364,22.6630,71.8494,287.5788,0,U,54743,999,1295,0,-.5E-7,0
TIANMU-1 03,2023-039A,2026-06-15T15:03:25.934400,15.47246097,.00042608,97.5224,340.5354,102.8704,257.3022,0,U,55973,999,18059,.2501936E-3,.12651E-3,0
TIANMU-1 04,2023-039B,2026-06-15T14:49:08.664960,15.47843393,.00048596,97.5162,339.6787,99.9098,260.2700,0,U,55974,999,18060,.24842531E-3,.12826E-3,0
TIANMU-1 05,2023-039C,2026-06-15T14:35:37.508928,15.47173415,.00039239,97.5208,340.1306,118.6187,241.5458,0,U,55975,999,18057,.24755926E-3,.12484E-3,0
TIANMU-1 06,2023-039D,2026-06-15T14:53:52.183968,15.47747906,.00043415,97.5214,340.7782,114.6866,245.4837,0,U,55976,999,18060,.24635917E-3,.12675E-3,0
FENGYUN 3G,2023-055A,2026-06-15T15:01:45.382080,15.52567165,.00069171,49.9935,354.0649,289.8362,70.1859,0,U,56232,999,17976,.3173569E-3,.19478E-3,0
METEOR-M2 3,2023-091A,2026-06-15T14:57:04.022208,14.24046685,.0004272,98.6090,221.6333,159.4773,200.6579,0,U,57166,999,15429,.19296716E-4,.1E-7,0
TIANMU-1 07,2023-101A,2026-06-15T14:17:48.177600,15.29792183,.00040078,97.2592,217.3005,124.7560,235.4059,0,U,57399,999,16140,.18834758E-3,.5361E-4,0
TIANMU-1 08,2023-101B,2026-06-15T15:03:57.919680,15.29797244,.00055414,97.2581,217.1027,118.7410,241.4389,0,U,57400,999,16140,.19443475E-3,.5539E-4,0
TIANMU-1 09,2023-101C,2026-06-15T14:40:07.637664,15.29827585,.00044866,97.2539,216.5031,130.4079,229.7554,0,U,57401,999,16140,.19710255E-3,.5621E-4,0
TIANMU-1 10,2023-101D,2026-06-15T15:27:40.741056,15.29799472,.00060832,97.2619,217.5842,130.0795,230.0980,0,U,57402,999,16140,.19347827E-3,.5512E-4,0
FENGYUN 3F,2023-111A,2026-06-15T15:14:56.647968,14.19938893,.00015809,98.6835,236.6730,94.6507,265.4850,0,U,57490,999,14864,.42741866E-4,.47E-6,0
ARKTIKA-M 2,2023-198A,2026-06-09T18:48:45.592992,2.00606537,.69004015,63.2205,155.1874,267.4353,18.7899,0,U,58584,999,1817,0,.212E-5,0
TIANMU-1 11,2023-205A,2026-06-15T14:41:02.366880,15.26982030,.00091708,97.3441,188.1933,22.5782,337.5859,0,U,58645,999,13728,.18770036E-3,.4903E-4,0
TIANMU-1 12,2023-205B,2026-06-15T13:58:18.636960,15.26946319,.00068983,97.3429,187.9202,9.2585,350.8780,0,U,58646,999,13726,.18757712E-3,.4892E-4,0
TIANMU-1 13,2023-205C,2026-06-15T14:44:25.842336,15.26799766,.00060843,97.3459,188.2241,347.9619,12.1474,0,U,58647,999,13726,.19096721E-3,.4959E-4,0
TIANMU-1 14,2023-205D,2026-06-15T14:23:11.640192,15.26844434,.00070509,97.3393,187.3926,351.8024,8.3099,0,U,58648,999,13726,.19115435E-3,.4972E-4,0
TIANMU-1 19,2023-208A,2026-06-15T14:07:05.885184,15.31553442,.00039333,97.4509,282.8794,335.4881,24.6173,0,U,58660,999,13708,.22638435E-3,.682E-4,0
