FENGYUN 3D              
1 43010U 17072A   26166.59691447 -.00000288  00000+0 -11445-3 0  9998
2 43010  99.0119 140.9902 0002592  64.8476 295.2968 14.19738205444763
NOAA 20 (JPSS-1)        
1 43013U 17073A   26166.59160657  .00000040  00000+0  39872-4 0  9995
2 43013  98.7772 106.0684 0000292  84.6320 275.4890 14.19511431444247
GOES 17                 
1 43226U 18022A   26166.45521164 -.00000180  00000+0  00000+0 0  9997
2 43226   0.9331  85.7405 0000399  34.0768 218.2957  1.00269922 30405
SENTINEL-3B             
1 43437U 18039A   26166.43645842  .00000065  00000+0  45013-4 0  9996
2 43437  98.6250 233.9938 0000742  85.5987 274.5279 14.26734189423870
FENGYUN 2H              
1 43491U 18050A   26166.63421399 -.00000130  00000+0  00000+0 0  9996
2 43491   3.0263  79.0896 0001954 137.5757 354.9826  1.00269693 29420
METOP-C                 
1 43689U 18087A   26166.58991156  .00000090  00000+0  60824-4 0  9991
2 43689  98.6645 226.2227 0001710 131.3696 228.7628 14.21511730394603
GEO-KOMPSAT-2A          
1 43823U 18100A   26166.59074169 -.00000341  00000+0  00000+0 0  9999
2 43823   0.0516 121.9914 0001784 324.3259 158.4907  1.00271241 27617
METEOR-M2 2             
1 44387U 19038A   26166.62901069 -.00000073  00000+0 -11535-4 0  9991
2 44387  98.9135 153.8912 0002124  50.2955 309.8410 14.24365364361077
ARKTIKA-M 1             
1 47719U 21016A   26160.51571443 -.00000149  00000+0  00000+0 0  9996
2 47719  63.2417  58.7595 7285674 269.8905  14.6803  2.00625436 38630
FENGYUN 3E              
1 49008U 21062A   26166.58095771 -.00000209  00000+0 -77623-4 0  9996
2 49008  98.7484 170.0068 0002831  88.0162 272.1339 14.19903098256356
GOES 18                 
1 51850U 22021A   26166.51705341  .00000099  00000+0  00000+0 0  9999
2 51850   0.0097  97.4311 0000303  68.9387 146.5668  1.00269699  6575
NOAA 21 (JPSS-2)        
1 54234U 22150A   26166.55408229  .00000040  00000+0  39443-4 0  9994
2 54234  98.7060 105.3707 0001566 157.7735 202.3510 14.19565194186313
METEOSAT-12 (MTG-I1)    
1 54743U 22170C   26166.33025781 -.00000005  00000+0  00000+0 0  9999
2 54743   0.7364  22.6630 0003127  71.8494 287.5788  1.00272178 12950
TIANMU-1 03             
1 55973U 23039A   26166.62738350  .00012651  00000+0  25019-3 0  9995
2 55973  97.5224 340.5354 0004260 102.8704 257.3022 15.47246097180597
TIANMU-1 04             
1 55974U 23039B   26166.61746140  .00012826  00000+0  24843-3 0  9999
2 55974  97.5162 339.6787 0004859  99.9098 260.2700 15.47843393180604
TIANMU-1 05             
1 55975U 23039C   26166.60807302  .00012484  00000+0  24756-3 0  9990
2 55975  97.5208 340.1306 0003923 118.6187 241.5458 15.47173415180578
TIANMU-1 06             
1 55976U 23039D   26166.62074287  .00012675  00000+0  24636-3 0  9990
2 55976  97.5214 340.7782 0004341 114.6866 245.4837 15.47747906180605
FENGYUN 3G              
1 56232U 23055A   26166.62621970  .00019478  00000+0  31736-3 0  9998
2 56232  49.9935 354.0649 0006917 289.8362  70.1859 15.52567165179764
METEOR-M2 3             
1 57166U 23091A   26166.62296322  .00000001  00000+0  19297-4 0  9995
2 57166  98.6090 221.6333 0004272 159.4773 200.6579 14.24046685154290
TIANMU-1 07             
1 57399U 23101A   26166.59569650  .00005361  00000+0  18835-3 0  9998
2 57399  97.2592 217.3005 0004007 124.7560 235.4059 15.29792183161400
TIANMU-1 08             
1 57400U 23101B   26166.62775370  .00005539  00000+0  19443-3 0  9996
2 57400  97.2581 217.1027 0005541 118.7410 241.4389 15.29797244161400
TIANMU-1 09             
1 57401U 23101C   26166.61119951  .00005621  00000+0  19710-3 0  9992
2 57401  97.2539 216.5031 0004486 130.4079 229.7554 15.29827585161406
TIANMU-1 10             
1 57402U 23101D   26166.64422154  .00005512  00000+0  19348-3 0  9994
2 57402  97.2619 217.5842 0006083 130.0795 230.0980 15.29799472161404
FENGYUN 3F              
1 57490U 23111A   26166.63537787  .00000047  00000+0  42742-4 0  9993
2 57490  98.6835 236.6730 0001580  94.6507 265.4850 14.19938893148646
ARKTIKA-M 2             
1 58584U 23198A   26160.78386103  .00000212  00000+0  00000+0 0  9997
2 58584  63.2205 155.1874 6900401 267.4353  18.7899  2.00606537 18179
TIANMU-1 11             
1 58645U 23205A   26166.61183295  .00004903  00000+0  18770-3 0  9997
2 58645  97.3441 188.1933 0009170  22.5782 337.5859 15.26982030137281
TIANMU-1 12             
1 58646U 23205B   26166.58216015  .00004892  00000+0  18758-3 0  9994
2 58646  97.3429 187.9202 0006898   9.2585 350.8780 15.26946319137260
TIANMU-1 13             
1 58647U 23205C   26166.61418799  .00004959  00000+0  19097-3 0  9993
2 58647  97.3459 188.2241 0006084 347.9619  12.1474 15.26799766137268
TIANMU-1 14             
1 58648U 23205D   26166.59944028  .00004972  00000+0  19115-3 0  9996
2 58648  97.3393 187.3926 0007050 351.8024   8.3099 15.26844434137267
TIANMU-1 19             
1 58660U 23208A   26166.58826256  .00006820  00000+0  22638-3 0  9992
2 58660  97.4509 282.8794 0003933 335.4881  24.6173 15.31553442137086
